STARLINK-30554          
1 58048U 23156W   26068.55091527  .00001869  00000+0  75245-4 0  9998
2 58048  53.1575 168.6728 0001080 101.2565 258.8557 15.30186563134961
TEVEL2-3                
1 63218U 25052J   26068.64540225  .00020365  00000+0  69446-3 0  9991
2 63218  97.3994 324.7775 0004761 105.7353 254.4413 15.30377031 54855
